      2.10          N: GNSS NAV DATA                        RINEX VERSION / TYPE
fic2rin                                 12/28/2019 00:19:28 PGM / RUN BY / DATE
                                                            END OF HEADER
 4 19 12 27 16  0  0.0-2.603512257338e-05-5.002220859751e-12 0.000000000000e+00
    1.230000000000e+02 1.334375000000e+01 5.095569393776e-09 1.735864642919e+00
    7.599592208862e-07 4.287927877158e-04 5.444511771202e-06 5.153724689484e+03
    4.896000000000e+05-1.303851604462e-08 1.663963759775e+00 8.754432201385e-08
    9.593535122845e-01 2.755000000000e+02-2.714653317396e+00-8.217842306118e-09
    2.857261873569e-10 1.000000000000e+00 2.085000000000e+03 0.000000000000e+00
    2.400000000000e+00 6.300000000000e+01-4.190951585770e-09 8.910000000000e+02
    4.824000000000e+05 4.000000000000e+00
10 19 12 27 16  0  0.0-1.878249458969e-04-1.398348103976e-11 0.000000000000e+00
    4.100000000000e+01-6.012500000000e+01 4.169816546739e-09-1.558999118411e+00
   -3.196299076080e-06 5.241265520453e-03 1.096911728382e-05 5.153668695450e+03
    4.896000000000e+05 6.332993507385e-08 5.825493836916e-01-2.980232238770e-08
    9.646671803859e-01 1.681875000000e+02-2.717617259644e+00-7.623174678681e-09
    5.635949045614e-10 1.000000000000e+00 2.085000000000e+03 0.000000000000e+00
    2.400000000000e+00 0.000000000000e+00 1.862645149231e-09 4.100000000000e+01
    4.824000000000e+05 4.000000000000e+00
 9 19 12 27 16  0  0.0-1.184125430882e-04-9.208633855451e-12 0.000000000000e+00
    9.600000000000e+01 1.725000000000e+01 5.245218484404e-09-3.140766649081e+00
    1.007691025734e-06 1.723254565150e-03 5.453824996948e-06 5.153528129578e+03
    4.896000000000e+05 1.024454832077e-07 1.617225035411e+00 2.980232238770e-08
    9.520354459948e-01 2.702187500000e+02 1.694833867948e+00-8.284987960147e-09
    2.982267080537e-10 1.000000000000e+00 2.085000000000e+03 0.000000000000e+00
    3.400000000000e+00 0.000000000000e+00 1.396983861923e-09 9.600000000000e+01
    4.824000000000e+05 4.000000000000e+00
24 19 12 27 16  0  0.0-6.788875907660e-06-5.684341886081e-13 0.000000000000e+00
    8.700000000000e+01-6.375000000000e+00 5.283791519697e-09 6.889345755647e-01
   -1.490116119385e-07 9.352369932458e-03 7.795169949532e-06 5.153661363602e+03
    4.896000000000e+05-2.048909664154e-08 2.622802813511e+00 1.229345798492e-07
    9.373061928280e-01 2.147812500000e+02 6.397536601479e-01-8.327846888250e-09
   -7.493169263434e-10 1.000000000000e+00 2.085000000000e+03 0.000000000000e+00
    3.400000000000e+00 0.000000000000e+00 2.793967723846e-09 8.700000000000e+01
    4.824000000000e+05 4.000000000000e+00
14 19 12 27 16  0  0.0-4.235608503222e-05 2.273736754432e-12 0.000000000000e+00
    5.100000000000e+01 9.375000000000e+00 4.909490214259e-09 2.335957749834e+00
    3.445893526077e-07 1.075146510266e-02 5.392357707024e-06 5.153590208054e+03
    4.896000000000e+05 8.009374141693e-08 1.711908279737e+00-1.955777406693e-07
    9.598846744324e-01 2.731562500000e+02-1.931698401278e+00-7.905686446430e-09
    1.985797002130e-10 1.000000000000e+00 2.085000000000e+03 0.000000000000e+00
    2.400000000000e+00 0.000000000000e+00-9.778887033463e-09 5.100000000000e+01
    4.824000000000e+05 4.000000000000e+00
11 19 12 27 16  0  0.0-4.072296433151e-04 1.091393642128e-11 0.000000000000e+00
    5.100000000000e+01-7.253125000000e+01 5.804170338421e-09-3.398750028724e-01
   -3.892928361893e-06 1.594861829653e-02 8.661299943924e-07 5.152862411499e+03
    4.896000000000e+05-2.179294824600e-07-9.199198634976e-01-1.247972249985e-07
    9.114829852564e-01 3.364062500000e+02 1.969734887227e+00-9.228598693893e-09
   -1.392915163365e-11 1.000000000000e+00 2.085000000000e+03 0.000000000000e+00
    2.400000000000e+00 0.000000000000e+00-1.210719347000e-08 5.100000000000e+01
    4.824000000000e+05 4.000000000000e+00
13 19 12 27 16  0  0.0-2.392427995801e-05 2.501110429876e-12 0.000000000000e+00
    1.070000000000e+02 7.343750000000e+00 4.896275378094e-09 1.762758321777e+00
    3.445893526077e-07 4.174020141363e-03 5.297362804413e-06 5.153652406693e+03
    4.896000000000e+05-6.891787052155e-08 1.757826536737e+00-6.891787052155e-08
    9.672997248762e-01 2.806562500000e+02 1.180189721193e+00-8.019976921373e-09
    1.342913080577e-10 1.000000000000e+00 2.085000000000e+03 0.000000000000e+00
    2.400000000000e+00 0.000000000000e+00-1.117587089539e-08 1.070000000000e+02
    4.824000000000e+05 4.000000000000e+00
30 19 12 27 16  0  0.0-1.155342906713e-04-8.640199666843e-12 0.000000000000e+00
    8.900000000000e+01-8.125000000000e+00 5.012708799442e-09-2.707223737249e-01
   -5.867332220078e-07 4.160149139352e-03 8.573755621910e-06 5.153710180283e+03
    4.896000000000e+05 4.284083843231e-08 2.717318596141e+00 7.823109626770e-08
    9.395342038965e-01 2.018750000000e+02-2.924583019982e+00-8.162840015051e-09
   -7.107438910502e-10 1.000000000000e+00 2.085000000000e+03 0.000000000000e+00
    2.400000000000e+00 0.000000000000e+00 3.725290298462e-09 8.900000000000e+01
    4.824000000000e+05 4.000000000000e+00
27 19 12 27 16  0  0.0-1.632338389754e-04-1.148237060988e-11 0.000000000000e+00
    1.030000000000e+02 6.781250000000e+01 4.218032840856e-09 2.644183064267e+00
    3.501772880554e-06 7.548725930974e-03 1.033768057823e-06 5.153656707764e+03
    4.896000000000e+05-9.126961231232e-08-1.510973873167e+00-6.332993507385e-08
    9.782217937213e-01 3.692812500000e+02 4.974033792358e-01-8.151053809823e-09
    2.135803250493e-10 1.000000000000e+00 2.085000000000e+03 0.000000000000e+00
    3.400000000000e+00 0.000000000000e+00 1.862645149231e-09 1.030000000000e+02
    4.824000000000e+05 4.000000000000e+00
25 19 12 27 16  0  0.0-1.697614789009e-05 4.547473508865e-13 0.000000000000e+00
    9.800000000000e+01 1.296562500000e+02 4.032667976808e-09-1.216931799671e+00
    6.660819053650e-06 8.798544527963e-03 9.994953870773e-06 5.153620830536e+03
    4.896000000000e+05 1.825392246246e-07-2.554585597590e+00 1.434236764908e-07
    9.679026709513e-01 1.909375000000e+02 8.855390884061e-01-7.763180510486e-09
   -1.464346710204e-10 1.000000000000e+00 2.085000000000e+03 0.000000000000e+00
    2.400000000000e+00 0.000000000000e+00 5.587935447693e-09 9.800000000000e+01
    4.824000000000e+05 4.000000000000e+00
15 19 12 27 16  0  0.0-2.627498470247e-04 2.614797267597e-12 0.000000000000e+00
    8.500000000000e+01 1.606250000000e+01 5.821671067396e-09 1.747431933245e+00
    7.748603820801e-07 1.211117766798e-02 6.036832928658e-06 5.153603420258e+03
    4.896000000000e+05-2.998858690262e-07 1.531640666090e+00-4.284083843231e-08
    9.275759691937e-01 2.493437500000e+02 8.546367609258e-01-8.532141112210e-09
    3.543004723225e-10 1.000000000000e+00 2.085000000000e+03 0.000000000000e+00
    2.400000000000e+00 0.000000000000e+00-1.117587089539e-08 8.500000000000e+01
    4.824000000000e+05 4.000000000000e+00
23 19 12 27 16  0  0.0-1.469184644520e-04 2.387423592154e-12 0.000000000000e+00
    8.300000000000e+01 1.693750000000e+01 5.535230564571e-09 1.181108936991e+00
    9.816139936447e-07 1.328306517098e-02 5.917623639107e-06 5.153688541412e+03
    4.896000000000e+05-2.067536115646e-07 1.610073576473e+00 1.620501279831e-07
    9.428500101274e-01 2.619687500000e+02-2.212825763749e+00-8.605715605455e-09
    2.192948487964e-10 1.000000000000e+00 2.085000000000e+03 0.000000000000e+00
    2.400000000000e+00 0.000000000000e+00-2.048909664154e-08 8.300000000000e+01
    4.824000000000e+05 4.000000000000e+00
21 19 12 27 16  0  0.0-6.457557901740e-05 5.684341886081e-12 0.000000000000e+00
    8.800000000000e+01-1.268750000000e+02 4.775556063936e-09-1.399877221957e+00
   -6.029382348061e-06 2.472368860617e-02 4.511326551437e-06 5.153592018127e+03
    4.896000000000e+05-3.390014171600e-07-5.252206816639e-01 5.587935447693e-07
    9.514392395833e-01 2.897812500000e+02-1.386000083461e+00-8.497139654259e-09
   -1.646497154644e-10 1.000000000000e+00 2.085000000000e+03 0.000000000000e+00
    2.400000000000e+00 0.000000000000e+00-1.024454832077e-08 8.800000000000e+01
    4.824000000000e+05 4.000000000000e+00
19 19 12 27 16  0  0.0-2.206014469266e-04 5.115907697473e-12 0.000000000000e+00
    5.600000000000e+01 2.759375000000e+01 4.225890311008e-09-1.012674545845e+00
    1.741573214531e-06 9.169671102427e-03 6.388872861862e-07 5.153661684036e+03
    4.896000000000e+05-6.519258022308e-08-1.407575162721e+00 1.061707735062e-07
    9.819870771434e-01 3.805937500000e+02 1.542974629761e+00-8.327489730516e-09
    1.860791795162e-10 1.000000000000e+00 2.085000000000e+03 0.000000000000e+00
    2.400000000000e+00 0.000000000000e+00-1.536682248116e-08 5.600000000000e+01
    4.824000000000e+05 4.000000000000e+00
12 19 12 27 16  0  0.0 1.687305048108e-04-4.092726157978e-12 0.000000000000e+00
    9.400000000000e+01 1.383750000000e+02 3.796586714504e-09-8.517827467304e-01
    7.156282663345e-06 7.740782690234e-03 9.087845683098e-06 5.153783138275e+03
    4.896000000000e+05-1.862645149231e-09-2.487598223251e+00 1.490116119385e-07
    9.805072930816e-01 2.158750000000e+02 1.094197548828e+00-7.757823144473e-09
   -4.178745490094e-11 1.000000000000e+00 2.085000000000e+03 0.000000000000e+00
    2.400000000000e+00 0.000000000000e+00-1.257285475731e-08 9.400000000000e+01
    4.824000000000e+05 4.000000000000e+00
29 19 12 27 16  0  0.0 7.692724466324e-06-9.663381206337e-12 0.000000000000e+00
    7.800000000000e+01 4.821875000000e+01 4.150172871358e-09 2.847663957708e+00
    2.559274435043e-06 1.029511215165e-03 3.296881914139e-07 5.153646680832e+03
    4.896000000000e+05-6.332993507385e-08-1.441973378722e+00-3.166496753693e-08
    9.855219553567e-01 3.872500000000e+02 2.003362841749e+00-8.179983586293e-09
    1.385772008681e-10 1.000000000000e+00 2.085000000000e+03 0.000000000000e+00
    2.400000000000e+00 0.000000000000e+00-9.778887033463e-09 7.800000000000e+01
    4.824000000000e+05 4.000000000000e+00
